[{"OBJECT_NAME":"STARLINK-3898","OBJECT_ID":"2022-049H","EPOCH":"2026-03-09T08:37:49.473696","MEAN_MOTION":15.08839708,"ECCENTRICITY":0.00014007,"INCLINATION":53.2171,"RA_OF_ASC_NODE":70.6007,"ARG_OF_PERICENTER":93.0762,"MEAN_ANOMALY":267.039,"EPHEMERIS_TYPE":0,"CLASSIFICATION_TYPE":"U","NORAD_CAT_ID":52458,"ELEMENT_SET_NO":999,"REV_AT_EPOCH":21206,"BSTAR":3.2795683e-5,"MEAN_MOTION_DOT":2.34e-6,"MEAN_MOTION_DDOT":0},{"OBJECT_NAME":"OBJECT A","OBJECT_ID":"2024-110A","EPOCH":"2026-03-09T23:09:02.134656","MEAN_MOTION":15.1192128,"ECCENTRICITY":0.0007919,"INCLINATION":97.5675,"RA_OF_ASC_NODE":161.4531,"ARG_OF_PERICENTER":228.7681,"MEAN_ANOMALY":131.2868,"EPHEMERIS_TYPE":0,"CLASSIFICATION_TYPE":"U","NORAD_CAT_ID":60012,"ELEMENT_SET_NO":999,"REV_AT_EPOCH":9691,"BSTAR":0.00051932581,"MEAN_MOTION_DOT":8.842e-5,"MEAN_MOTION_DDOT":0}]
